STARLINK-30716
1 57936U 23148B   25329.73792329 -.00000460  00000+0 -33941-5 0  9997
2 57936  53.1586 147.2785 0001178  99.0140 261.0994 15.30192068122500